{"type": "FeatureCollection", "features": [ {"type": "Feature", "properties": {"norad_id": 34784, "name": "COSMOS 2251 DEB", "group": "cosmos-2251-debris", "lat": 16.234519154933956, "lon": -34.0307492470688, "alt_km": 704.4764105803552, "timestamp": "2025-12-14T09:36:23.433188+00:00", "meta": {"OBJECT_NAME": "COSMOS 2251 DEB", "OBJECT_ID": "1993-036AAM", "EPOCH": "2025-12-12T16:26:17.481984", "MEAN_MOTION": 14.60779398, "ECCENTRICITY": 0.00494088, "INCLINATION": 74.0074, "RA_OF_ASC_NODE": 324.4607, "ARG_OF_PERICENTER": 133.8124, "MEAN_ANOMALY": 226.7144, "EPHEMERIS_TYPE": 0, "CLASSIFICATION_TYPE": "U", "NORAD_CAT_ID": 34784, "ELEMENT_SET_NO": 999, "REV_AT_EPOCH": 88534, "BSTAR": 0.00075874153, "MEAN_MOTION_DOT": 3.739e-05, "MEAN_MOTION_DDOT": 0}, "tle": {"line1": "1 34784U 93036AAM 25346.68492456  .00003739  00000+0  75874-3 0  9996", "line2": "2 34784  74.0074 324.4607 0049408 133.8124 226.7144 14.60779398885341"}}, "geometry": {"type": "Point", "coordinates": [-34.0307492470688, 16.234519154933956]}}, {"type": "Feature", "properties": {"norad_id": 34790, "name": "COSMOS 2251 DEB", "group": "cosmos-2251-debris", "lat": -66.48272655229616, "lon": -160.3623529904706, "alt_km": 746.4005097654717, "timestamp": "2025-12-14T09:36:23.433198+00:00", "meta": {"OBJECT_NAME": "COSMOS 2251 DEB", "OBJECT_ID": "1993-036AAT", "EPOCH": "2025-12-12T04:44:34.895904", "MEAN_MOTION": 14.2462878, "ECCENTRICITY": 0.01007462, "INCLINATION": 74.0522, "RA_OF_ASC_NODE": 244.6799, "ARG_OF_PERICENTER": 306.4348, "MEAN_ANOMALY": 209.2227, "EPHEMERIS_TYPE": 0, "CLASSIFICATION_TYPE": "U", "NORAD_CAT_ID": 34790, "ELEMENT_SET_NO": 999, "REV_AT_EPOCH": 86565, "BSTAR": 0.0010742752, "MEAN_MOTION_DOT": 2.606e-05, "MEAN_MOTION_DDOT": 0}, "tle": {"line1": "1 34790U 93036AAT 25346.19762611  .00002606  00000+0  10743-2 0  9997", "line2": "2 34790  74.0522 244.6799 0100746 306.4348 209.2227 14.24628780865658"}}, "geometry": {"type": "Point", "coordinates": [-160.3623529904706, -66.48272655229616]}}, {"type": "Feature", "properties": {"norad_id": 34792, "name": "COSMOS 2251 DEB", "group": "cosmos-2251-debris", "lat": 59.097442557902156, "lon": -164.83294838841996, "alt_km": 708.5621158781887, "timestamp": "2025-12-14T09:36:23.433207+00:00", "meta": {"OBJECT_NAME": "COSMOS 2251 DEB", "OBJECT_ID": "1993-036AAV", "EPOCH": "2025-12-13T12:01:08.631840", "MEAN_MOTION": 14.55966788, "ECCENTRICITY": 0.0012481, "INCLINATION": 74.0175, "RA_OF_ASC_NODE": 168.2645, "ARG_OF_PERICENTER": 262.402, "MEAN_ANOMALY": 128.1212, "EPHEMERIS_TYPE": 0, "CLASSIFICATION_TYPE": "U", "NORAD_CAT_ID": 34792, "ELEMENT_SET_NO": 999, "REV_AT_EPOCH": 87661, "BSTAR": 0.0015969195, "MEAN_MOTION_DOT": 7.007e-05, "MEAN_MOTION_DDOT": 0}, "tle": {"line1": "1 34792U 93036AAV 25347.50079435  .00007007  00000+0  15969-2 0  9995", "line2": "2 34792  74.0175 168.2645 0012481 262.4020 128.1212 14.55966788876619"}}, "geometry": {"type": "Point", "coordinates": [-164.83294838841996, 59.097442557902156]}}, {"type": "Feature", "properties": {"norad_id": 34793, "name": "COSMOS 2251 DEB", "group": "cosmos-2251-debris", "lat": 71.74541656183939, "lon": 6.869244801629904, "alt_km": 736.4460044265179, "timestamp": "2025-12-14T09:36:23.433217+00:00", "meta": {"OBJECT_NAME": "COSMOS 2251 DEB", "OBJECT_ID": "1993-036AAW", "EPOCH": "2025-12-13T16:34:48.811008", "MEAN_MOTION": 14.38646708, "ECCENTRICITY": 0.00503437, "INCLINATION": 74.0027, "RA_OF_ASC_NODE": 248.6099, "ARG_OF_PERICENTER": 42.4845, "MEAN_ANOMALY": 343.1586, "EPHEMERIS_TYPE": 0, "CLASSIFICATION_TYPE": "U", "NORAD_CAT_ID": 34793, "ELEMENT_SET_NO": 999, "REV_AT_EPOCH": 87344, "BSTAR": 0.00036268671, "MEAN_MOTION_DOT": 1.102e-05, "MEAN_MOTION_DDOT": 0}, "tle": {"line1": "1 34793U 93036AAW 25347.69084272  .00001102  00000+0  36269-3 0  9998", "line2": "2 34793  74.0027 248.6099 0050343  42.4845 343.1586 14.38646708873441"}}, "geometry": {"type": "Point", "coordinates": [6.869244801629904, 71.74541656183939]}}, {"type": "Feature", "properties": {"norad_id": 34796, "name": "COSMOS 2251 DEB", "group": "cosmos-2251-debris", "lat": -65.70449009913318, "lon": 72.60638685307201, "alt_km": 704.3484474542711, "timestamp": "2025-12-14T09:36:23.433228+00:00", "meta": {"OBJECT_NAME": "COSMOS 2251 DEB", "OBJECT_ID": "1993-036AAZ", "EPOCH": "2025-12-13T16:09:22.764096", "MEAN_MOTION": 14.4869684, "ECCENTRICITY": 0.01002849, "INCLINATION": 74.0294, "RA_OF_ASC_NODE": 214.5945, "ARG_OF_PERICENTER": 316.4175, "MEAN_ANOMALY": 105.5536, "EPHEMERIS_TYPE": 0, "CLASSIFICATION_TYPE": "U", "NORAD_CAT_ID": 34796, "ELEMENT_SET_NO": 999, "REV_AT_EPOCH": 88041, "BSTAR": 0.0007800698, "MEAN_MOTION_DOT": 3.104e-05, "MEAN_MOTION_DDOT": 0}, "tle": {"line1": "1 34796U 93036AAZ 25347.67318014  .00003104  00000+0  78007-3 0  9993", "line2": "2 34796  74.0294 214.5945 0100284 316.4175 105.5536 14.48696840880415"}}, "geometry": {"type": "Point", "coordinates": [72.60638685307201, -65.70449009913318]}}, {"type": "Feature", "properties": {"norad_id": 34797, "name": "COSMOS 2251 DEB", "group": "cosmos-2251-debris", "lat": -18.471130214688955, "lon": 91.38774173113548, "alt_km": 787.4636467937089, "timestamp": "2025-12-14T09:36:23.433238+00:00", "meta": {"OBJECT_NAME": "COSMOS 2251 DEB", "OBJECT_ID": "1993-036ABA", "EPOCH": "2025-12-08T02:15:30.483648", "MEAN_MOTION": 14.42690241, "ECCENTRICITY": 0.00721111, "INCLINATION": 73.9779, "RA_OF_ASC_NODE": 108.638, "ARG_OF_PERICENTER": 222.8023, "MEAN_ANOMALY": 136.7506, "EPHEMERIS_TYPE": 0, "CLASSIFICATION_TYPE": "U", "NORAD_CAT_ID": 34797, "ELEMENT_SET_NO": 999, "REV_AT_EPOCH": 87348, "BSTAR": 0.0033221371, "MEAN_MOTION_DOT": 0.00011397, "MEAN_MOTION_DDOT": 0}, "tle": {"line1": "1 34797U 93036ABA 25342.09410282  .00011397  00000+0  33221-2 0  9996", "line2": "2 34797  73.9779 108.6380 0072111 222.8023 136.7506 14.42690241873482"}}, "geometry": {"type": "Point", "coordinates": [91.38774173113548, -18.471130214688955]}}, {"type": "Feature", "properties": {"norad_id": 34814, "name": "COSMOS 2251 DEB", "group": "cosmos-2251-debris", "lat": -65.20296014964086, "lon": -76.34648780605012, "alt_km": 766.7756038472671, "timestamp": "2025-12-14T09:36:23.433247+00:00", "meta": {"OBJECT_NAME": "COSMOS 2251 DEB", "OBJECT_ID": "1993-036ABD", "EPOCH": "2025-12-13T09:35:04.706592", "MEAN_MOTION": 14.36900773, "ECCENTRICITY": 0.00561488, "INCLINATION": 73.8959, "RA_OF_ASC_NODE": 324.2145, "ARG_OF_PERICENTER": 213.5869, "MEAN_ANOMALY": 299.4235, "EPHEMERIS_TYPE": 0, "CLASSIFICATION_TYPE": "U", "NORAD_CAT_ID": 34814, "ELEMENT_SET_NO": 999, "REV_AT_EPOCH": 87342, "BSTAR": 0.0012584251, "MEAN_MOTION_DOT": 3.766e-05, "MEAN_MOTION_DDOT": 0}, "tle": {"line1": "1 34814U 93036ABD 25347.39936003  .00003766  00000+0  12584-2 0  9998", "line2": "2 34814  73.8959 324.2145 0056148 213.5869 299.4235 14.36900773873420"}}, "geometry": {"type": "Point", "coordinates": [-76.34648780605012, -65.20296014964086]}}, {"type": "Feature", "properties": {"norad_id": 34815, "name": "COSMOS 2251 DEB", "group": "cosmos-2251-debris", "lat": -27.341901984155875, "lon": -129.96572519520214, "alt_km": 602.3574363075077, "timestamp": "2025-12-14T09:36:23.433258+00:00", "meta": {"OBJECT_NAME": "COSMOS 2251 DEB", "OBJECT_ID": "1993-036ABE", "EPOCH": "2025-12-12T18:45:18.245952", "MEAN_MOTION": 14.7831495, "ECCENTRICITY": 0.00588665, "INCLINATION": 74.0447, "RA_OF_ASC_NODE": 241.7185, "ARG_OF_PERICENTER": 310.7762, "MEAN_ANOMALY": 48.8313, "EPHEMERIS_TYPE": 0, "CLASSIFICATION_TYPE": "U", "NORAD_CAT_ID": 34815, "ELEMENT_SET_NO": 999, "REV_AT_EPOCH": 88628, "BSTAR": 0.0012841437, "MEAN_MOTION_DOT": 9.588e-05, "MEAN_MOTION_DDOT": 0}, "tle": {"line1": "1 34815U 93036ABE 25346.78146118  .00009588  00000+0  12841-2 0  9995", "line2": "2 34815  74.0447 241.7185 0058866 310.7762  48.8313 14.78314950886287"}}, "geometry": {"type": "Point", "coordinates": [-129.96572519520214, -27.341901984155875]}}, {"type": "Feature", "properties": {"norad_id": 34816, "name": "COSMOS 2251 DEB", "group": "cosmos-2251-debris", "lat": -64.2686825692348, "lon": 103.56258797907338, "alt_km": 1017.9723732343928, "timestamp": "2025-12-14T09:36:23.433268+00:00", "meta": {"OBJECT_NAME": "COSMOS 2251 DEB", "OBJECT_ID": "1993-036ABF", "EPOCH": "2025-12-13T16:22:17.301216", "MEAN_MOTION": 13.58324736, "ECCENTRICITY": 0.03734104, "INCLINATION": 73.8877, "RA_OF_ASC_NODE": 141.5855, "ARG_OF_PERICENTER": 205.8898, "MEAN_ANOMALY": 169.9043, "EPHEMERIS_TYPE": 0, "CLASSIFICATION_TYPE": "U", "NORAD_CAT_ID": 34816, "ELEMENT_SET_NO": 999, "REV_AT_EPOCH": 82796, "BSTAR": 0.0016504219, "MEAN_MOTION_DOT": 1.868e-05, "MEAN_MOTION_DDOT": 0}, "tle": {"line1": "1 34816U 93036ABF 25347.68214469  .00001868  00000+0  16504-2 0  9994", "line2": "2 34816  73.8877 141.5855 0373410 205.8898 169.9043 13.58324736827967"}}, "geometry": {"type": "Point", "coordinates": [103.56258797907338, -64.2686825692348]}}, {"type": "Feature", "properties": {"norad_id": 34818, "name": "COSMOS 2251 DEB", "group": "cosmos-2251-debris", "lat": 0.3122843444295625, "lon": -66.02408798187463, "alt_km": 753.9941734039076, "timestamp": "2025-12-14T09:36:23.433278+00:00", "meta": {"OBJECT_NAME": "COSMOS 2251 DEB", "OBJECT_ID": "1993-036ABH", "EPOCH": "2025-12-13T07:34:41.613024", "MEAN_MOTION": 14.36968479, "ECCENTRICITY": 0.00242051, "INCLINATION": 74.036, "RA_OF_ASC_NODE": 295.8798, "ARG_OF_PERICENTER": 11.4231, "MEAN_ANOMALY": 141.0395, "EPHEMERIS_TYPE": 0, "CLASSIFICATION_TYPE": "U", "NORAD_CAT_ID": 34818, "ELEMENT_SET_NO": 999, "REV_AT_EPOCH": 87378, "BSTAR": 0.0003515045, "MEAN_MOTION_DOT": 1.019e-05, "MEAN_MOTION_DDOT": 0}, "tle": {"line1": "1 34818U 93036ABH 25347.31575941  .00001019  00000+0  35150-3 0  9998", "line2": "2 34818  74.0360 295.8798 0024205  11.4231 141.0395 14.36968479873782"}}, "geometry": {"type": "Point", "coordinates": [-66.02408798187463, 0.3122843444295625]}}]}